start=new Date('2021-10-10T00:00:00.000Z').valueOf();
sats=[{"PERIAPSIS":"546.013","REV_AT_EPOCH":"2970","FILE":"3153808","LAUNCH_DATE":"2021-04-07","ECCENTRICITY":"0.00017630","OBJECT_NAME":"STARLINK-2503","DECAY_DATE":null,"MEAN_ANOMALY":"291.1710","CENTER_NAME":"EARTH","MEAN_MOTION_DDOT":"0.0000000000000","ARG_OF_PERICENTER":"68.9468","REF_FRAME":"TEME","TLE_LINE2":"2 48151  53.0618 189.1366 0001763  68.9468 291.1710 15.06393461 29703","NORAD_CAT_ID":"48151","MEAN_MOTION_DOT":"-0.00001517","CLASSIFICATION_TYPE":"U","PERIOD":"95.593","MEAN_MOTION":"15.06393461","EPOCH":"2021-10-09T11:15:31.746816","TIME_SYSTEM":"UTC","RA_OF_ASC_NODE":"189.1366","ELEMENT_SET_NO":"999","OBJECT_TYPE":"PAYLOAD","EPHEMERIS_TYPE":"0","COUNTRY_CODE":"US","MEAN_ELEMENT_THEORY":"SGP4","BSTAR":"-0.00008299300000","TLE_LINE1":"1 48151U 21027BM  21282.46911744 -.00001517  00000-0 -82993-4 0  9993","SEMIMAJOR_AXIS":"6925.369","GP_ID":"186728142","RCS_SIZE":"LARGE","OBJECT_ID":"2021-027BM","INCLINATION":"53.0618","SITE":"AFETR","APOAPSIS":"548.455"},{"RA_OF_ASC_NODE":"81.7746","ELEMENT_SET_NO":"999","OBJECT_TYPE":"PAYLOAD","EPHEMERIS_TYPE":"0","PERIOD":"95.456","MEAN_MOTION":"15.08551809","EPOCH":"2021-10-10T00:00:00.999648","TIME_SYSTEM":"UTC","GP_ID":"186729159","OBJECT_ID":"2021-036A","RCS_SIZE":"LARGE","INCLINATION":"53.0466","SITE":"AFETR","APOAPSIS":"541.630","COUNTRY_CODE":"US","MEAN_ELEMENT_THEORY":"SGP4","TLE_LINE1":"1 48276U 21036A   21283.00001157 -.01116180  00000-0 -76620-1 0  9991","BSTAR":"-0.07662000000000","SEMIMAJOR_AXIS":"6918.761","LAUNCH_DATE":"2021-04-29","OBJECT_NAME":"STARLINK-2567","ECCENTRICITY":"0.00014500","DECAY_DATE":null,"PERIAPSIS":"539.623","REV_AT_EPOCH":"363","FILE":"3153808","REF_FRAME":"TEME","TLE_LINE2":"2 48276  53.0466  81.7746 0001450  66.9093  67.6726 15.08551809  3637","NORAD_CAT_ID":"48276","MEAN_MOTION_DOT":"-0.01116180","CLASSIFICATION_TYPE":"U","CENTER_NAME":"EARTH","MEAN_ANOMALY":"67.6726","MEAN_MOTION_DDOT":"0.0000000000000","ARG_OF_PERICENTER":"66.9093"},{"MEAN_MOTION_DOT":"0.00033110","TLE_LINE2":"2 48277  53.0482  74.9759 0004629 355.4036 169.1949 15.73266771  3670","NORAD_CAT_ID":"48277","REF_FRAME":"TEME","CLASSIFICATION_TYPE":"U","MEAN_MOTION_DDOT":"0.0000000000000","CENTER_NAME":"EARTH","MEAN_ANOMALY":"169.1949","ARG_OF_PERICENTER":"355.4036","LAUNCH_DATE":"2021-04-29","DECAY_DATE":null,"ECCENTRICITY":"0.00046290","OBJECT_NAME":"STARLINK-2569","REV_AT_EPOCH":"367","PERIAPSIS":"346.456","FILE":"3153808","SITE":"AFETR","RCS_SIZE":"LARGE","INCLINATION":"53.0482","OBJECT_ID":"2021-036B","GP_ID":"186728411","APOAPSIS":"352.684","MEAN_ELEMENT_THEORY":"SGP4","COUNTRY_CODE":"US","SEMIMAJOR_AXIS":"6727.705","TLE_LINE1":"1 48277U 21036B   21283.00001157  .00033110  00000-0  23858-3 0  9997","BSTAR":"0.00023858000000","RA_OF_ASC_NODE":"74.9759","OBJECT_TYPE":"PAYLOAD","EPHEMERIS_TYPE":"0","ELEMENT_SET_NO":"999","PERIOD":"91.529","MEAN_MOTION":"15.73266771","TIME_SYSTEM":"UTC","EPOCH":"2021-10-10T00:00:00.999648"},{"EPOCH":"2021-10-10T00:00:00.999648","TIME_SYSTEM":"UTC","PERIOD":"91.528","MEAN_MOTION":"15.73282872","ELEMENT_SET_NO":"999","OBJECT_TYPE":"PAYLOAD","EPHEMERIS_TYPE":"0","RA_OF_ASC_NODE":"74.9734","SEMIMAJOR_AXIS":"6727.659","BSTAR":"-0.00060196000000","TLE_LINE1":"1 48278U 21036C   21283.00001157 -.00084634  00000-0 -60196-3 0  9993","MEAN_ELEMENT_THEORY":"SGP4","COUNTRY_CODE":"US","APOAPSIS":"352.573","GP_ID":"186728656","SITE":"AFETR","INCLINATION":"53.0483","RCS_SIZE":"LARGE","OBJECT_ID":"2021-036C","FILE":"3153808","PERIAPSIS":"346.475","REV_AT_EPOCH":"367","ECCENTRICITY":"0.00045320","OBJECT_NAME":"STARLINK-2543","DECAY_DATE":null,"LAUNCH_DATE":"2021-04-29","ARG_OF_PERICENTER":"354.2539","MEAN_ANOMALY":"171.0906","CENTER_NAME":"EARTH","MEAN_MOTION_DDOT":"0.0000000000000","CLASSIFICATION_TYPE":"U","TLE_LINE2":"2 48278  53.0483  74.9734 0004532 354.2539 171.0906 15.73282872  3678","NORAD_CAT_ID":"48278","REF_FRAME":"TEME","MEAN_MOTION_DOT":"-0.00084634"},{"ELEMENT_SET_NO":"999","EPHEMERIS_TYPE":"0","OBJECT_TYPE":"PAYLOAD","RA_OF_ASC_NODE":"74.9715","EPOCH":"2021-10-10T00:00:00.999648","TIME_SYSTEM":"UTC","PERIOD":"91.530","MEAN_MOTION":"15.73247723","APOAPSIS":"352.596","GP_ID":"186728912","INCLINATION":"53.0481","RCS_SIZE":"LARGE","OBJECT_ID":"2021-036D","SITE":"AFETR","BSTAR":"0.00000331990000","TLE_LINE1":"1 48279U 21036D   21283.00001157 -.00000159  00000-0  33199-5 0  9998","SEMIMAJOR_AXIS":"6727.759","COUNTRY_CODE":"US","MEAN_ELEMENT_THEORY":"SGP4","ECCENTRICITY":"0.00044180","OBJECT_NAME":"STARLINK-2580","DECAY_DATE":null,"LAUNCH_DATE":"2021-04-29","FILE":"3153808","PERIAPSIS":"346.652","REV_AT_EPOCH":"367","CLASSIFICATION_TYPE":"U","REF_FRAME":"TEME","TLE_LINE2":"2 48279  53.0481  74.9715 0004418 352.9164 173.0588 15.73247723  3672","NORAD_CAT_ID":"48279","MEAN_MOTION_DOT":"-0.00000159","ARG_OF_PERICENTER":"352.9164","MEAN_ANOMALY":"173.0588","CENTER_NAME":"EARTH","MEAN_MOTION_DDOT":"0.0000000000000"},{"RA_OF_ASC_NODE":"132.9545","EPHEMERIS_TYPE":"0","OBJECT_TYPE":"PAYLOAD","ELEMENT_SET_NO":"999","MEAN_MOTION":"15.06389133","PERIOD":"95.593","TIME_SYSTEM":"UTC","EPOCH":"2021-10-09T17:37:00.979968","SITE":"AFETR","OBJECT_ID":"2021-036E","RCS_SIZE":"LARGE","INCLINATION":"53.0543","GP_ID":"186729659","APOAPSIS":"548.703","MEAN_ELEMENT_THEORY":"SGP4","COUNTRY_CODE":"US","SEMIMAJOR_AXIS":"6925.382","TLE_LINE1":"1 48280U 21036E   21282.73403912 -.00000017  00000-0  17751-4 0  9992","BSTAR":"0.00001775100000","LAUNCH_DATE":"2021-04-29","DECAY_DATE":null,"ECCENTRICITY":"0.00021020","OBJECT_NAME":"STARLINK-2565","REV_AT_EPOCH":"2514","PERIAPSIS":"545.791","FILE":"3153808","MEAN_MOTION_DOT":"-0.00000017","TLE_LINE2":"2 48280  53.0543 132.9545 0002102  75.9506 284.1716 15.06389133 25140","NORAD_CAT_ID":"48280","REF_FRAME":"TEME","CLASSIFICATION_TYPE":"U","MEAN_MOTION_DDOT":"0.0000000000000","CENTER_NAME":"EARTH","MEAN_ANOMALY":"284.1716","ARG_OF_PERICENTER":"75.9506"},{"SITE":"AFETR","RCS_SIZE":"LARGE","OBJECT_ID":"2021-036F","INCLINATION":"53.0553","GP_ID":"186727912","APOAPSIS":"548.470","MEAN_ELEMENT_THEORY":"SGP4","COUNTRY_CODE":"US","SEMIMAJOR_AXIS":"6925.359","TLE_LINE1":"1 48281U 21036F   21282.81328143  .00001270  00000-0  10414-3 0  9993","BSTAR":"0.00010414000000","RA_OF_ASC_NODE":"112.5995","EPHEMERIS_TYPE":"0","OBJECT_TYPE":"PAYLOAD","ELEMENT_SET_NO":"999","PERIOD":"95.592","MEAN_MOTION":"15.06396484","TIME_SYSTEM":"UTC","EPOCH":"2021-10-09T19:31:07.515552","MEAN_MOTION_DOT":"0.00001270","TLE_LINE2":"2 48281  53.0553 112.5995 0001798  88.1391 271.9804 15.06396484 25434","NORAD_CAT_ID":"48281","REF_FRAME":"TEME","CLASSIFICATION_TYPE":"U","MEAN_MOTION_DDOT":"0.0000000000000","CENTER_NAME":"EARTH","MEAN_ANOMALY":"271.9804","ARG_OF_PERICENTER":"88.1391","LAUNCH_DATE":"2021-04-29","DECAY_DATE":null,"OBJECT_NAME":"STARLINK-2520","ECCENTRICITY":"0.00017980","REV_AT_EPOCH":"2543","PERIAPSIS":"545.979","FILE":"3153808"},{"EPHEMERIS_TYPE":"0","OBJECT_TYPE":"PAYLOAD","ELEMENT_SET_NO":"999","RA_OF_ASC_NODE":"117.7900","TIME_SYSTEM":"UTC","EPOCH":"2021-10-09T18:29:27.466656","PERIOD":"95.593","MEAN_MOTION":"15.06386870","APOAPSIS":"548.437","OBJECT_ID":"2021-036G","RCS_SIZE":"LARGE","INCLINATION":"53.0610","SITE":"AFETR","GP_ID":"186728157","TLE_LINE1":"1 48282U 21036G   21282.77045679 -.00001367  00000-0 -72927-4 0  9996","BSTAR":"-0.00007292700000","SEMIMAJOR_AXIS":"6925.389","COUNTRY_CODE":"US","MEAN_ELEMENT_THEORY":"SGP4","DECAY_DATE":null,"OBJECT_NAME":"STARLINK-2558","ECCENTRICITY":"0.00017080","LAUNCH_DATE":"2021-04-29","FILE":"3153808","REV_AT_EPOCH":"2536","PERIAPSIS":"546.071","CLASSIFICATION_TYPE":"U","MEAN_MOTION_DOT":"-0.00001367","REF_FRAME":"TEME","TLE_LINE2":"2 48282  53.0610 117.7900 0001708  90.9579 269.1606 15.06386870 25361","NORAD_CAT_ID":"48282","ARG_OF_PERICENTER":"90.9579","MEAN_MOTION_DDOT":"0.0000000000000","MEAN_ANOMALY":"269.1606","CENTER_NAME":"EARTH"},{"OBJECT_TYPE":"PAYLOAD","EPHEMERIS_TYPE":"0","ELEMENT_SET_NO":"999","RA_OF_ASC_NODE":"117.8005","TIME_SYSTEM":"UTC","EPOCH":"2021-10-09T18:24:08.500320","PERIOD":"95.592","MEAN_MOTION":"15.06406127","APOAPSIS":"548.192","SITE":"AFETR","RCS_SIZE":"LARGE","INCLINATION":"53.0624","OBJECT_ID":"2021-036H","GP_ID":"186729412","SEMIMAJOR_AXIS":"6925.330","TLE_LINE1":"1 48283U 21036H   21282.76676505  .00001113  00000-0  93616-4 0  9999","BSTAR":"0.00009361600000","MEAN_ELEMENT_THEORY":"SGP4","COUNTRY_CODE":"US","DECAY_DATE":null,"OBJECT_NAME":"STARLINK-2516","ECCENTRICITY":"0.00014400","LAUNCH_DATE":"2021-04-29","FILE":"3153808","REV_AT_EPOCH":"2536","PERIAPSIS":"546.198","CLASSIFICATION_TYPE":"U","MEAN_MOTION_DOT":"0.00001113","TLE_LINE2":"2 48283  53.0624 117.8005 0001440  90.4769 269.6385 15.06406127 25360","NORAD_CAT_ID":"48283","REF_FRAME":"TEME","ARG_OF_PERICENTER":"90.4769","MEAN_MOTION_DDOT":"0.0000000000000","CENTER_NAME":"EARTH","MEAN_ANOMALY":"269.6385"},{"CENTER_NAME":"EARTH","MEAN_ANOMALY":"276.1113","MEAN_MOTION_DDOT":"0.0000000000000","ARG_OF_PERICENTER":"84.0112","NORAD_CAT_ID":"48284","TLE_LINE2":"2 48284  53.0494 117.8475 0002075  84.0112 276.1113 15.06402350 25358","REF_FRAME":"TEME","MEAN_MOTION_DOT":"0.00002032","CLASSIFICATION_TYPE":"U","PERIAPSIS":"545.769","REV_AT_EPOCH":"2535","FILE":"3153808","LAUNCH_DATE":"2021-04-29","OBJECT_NAME":"STARLINK-2564","ECCENTRICITY":"0.00020750","DECAY_DATE":null,"MEAN_ELEMENT_THEORY":"SGP4","COUNTRY_CODE":"US","SEMIMAJOR_AXIS":"6925.341","TLE_LINE1":"1 48284U 21036J   21282.76305538  .00002032  00000-0  15527-3 0  9990","BSTAR":"0.00015527000000","GP_ID":"186729160","SITE":"AFETR","OBJECT_ID":"2021-036J","RCS_SIZE":"LARGE","INCLINATION":"53.0494","APOAPSIS":"548.643","PERIOD":"95.592","MEAN_MOTION":"15.06402350","EPOCH":"2021-10-09T18:18:47.984832","TIME_SYSTEM":"UTC","RA_OF_ASC_NODE":"117.8475","ELEMENT_SET_NO":"999","OBJECT_TYPE":"PAYLOAD","EPHEMERIS_TYPE":"0"}];
